OBJECT_NAME,OBJECT_ID,EPOCH,MEAN_MOTION,ECCENTRICITY,INCLINATION,RA_OF_ASC_NODE,ARG_OF_PERICENTER,MEAN_ANOMALY,EPHEMERIS_TYPE,CLASSIFICATION_TYPE,NORAD_CAT_ID,ELEMENT_SET_NO,REV_AT_EPOCH,BSTAR,MEAN_MOTION_DOT,MEAN_MOTION_DDOT
KUIPER-00603,2026-118W,2026-06-15T23:00:46.374912,15.37555931,.0005375,51.8684,59.1999,156.0105,204.1133,0,U,69287,999,379,.50868057E-3,.18699E-3,0
KUIPER-00605,2026-118X,2026-06-15T23:08:24.467712,15.37026944,.00073102,51.8676,59.2346,163.1114,197.0118,0,U,69288,999,379,.74130514E-3,.27E-3,0
KUIPER-00606,2026-118Y,2026-06-15T22:57:11.670048,15.37738873,.00046024,51.8705,59.1838,146.0498,214.0784,0,U,69289,999,379,.48277192E-3,.1783E-3,0
KUIPER-00607,2026-118Z,2026-06-15T23:02:18.773664,15.37423734,.00059289,51.8697,59.2079,157.4979,202.6268,0,U,69290,999,379,.50049436E-3,.18313E-3,0
KUIPER-00608,2026-118AA,2026-06-15T23:23:29.693472,15.35238044,.00084807,51.8613,59.2967,173.2413,186.8688,0,U,69291,999,379,.33564182E-3,.11303E-3,0
KUIPER-00610,2026-118AB,2026-06-15T22:48:18.519840,15.38363952,.00026732,51.8729,59.1411,131.3747,228.7470,0,U,69292,999,379,.36525205E-3,.13665E-3,0
KUIPER-00613,2026-118AC,2026-06-15T21:56:08.138976,15.34984584,.00098446,51.8633,59.6413,178.5133,181.5883,0,U,69293,999,378,.91163741E-4,.2761E-4,0
KUIPER-00618,2026-118AD,2026-06-15T22:43:00.211872,15.38626904,.00017189,51.8732,59.1168,87.2290,272.8894,0,U,69294,999,379,.5395476E-3,.20571E-3,0
KUIPER-00620,2026-118AE,2026-06-15T22:47:27.399552,15.38285101,.00027478,51.8728,59.1384,112.6740,247.4538,0,U,69295,999,379,.40415969E-3,.15126E-3,0
STARLINK-37501,2026-119A,2026-06-15T22:00:01.999584,15.71489075,.00020607,97.2841,192.6634,78.9772,78.9066,0,U,69296,999,368,-.22148718E-1,-.242222E-1,0
STARLINK-37496,2026-119B,2026-06-15T22:00:01.999584,15.69985579,.00018126,97.2840,192.6627,72.2314,85.3752,0,U,69297,999,368,-.24576376E-1,-.2565902E-1,0
STARLINK-37519,2026-119C,2026-06-15T22:00:01.999584,15.71039178,.00018962,97.2843,192.6723,81.1492,97.8087,0,U,69298,999,368,-.23422944E-1,-.2557496E-1,0
STARLINK-37455,2026-119D,2026-06-15T22:00:01.999584,15.60851723,.0001526,97.2837,192.6343,65.5619,16.1033,0,U,69299,999,368,-.3357389E-1,-.2445277E-1,0
STARLINK-37456,2026-119E,2026-06-15T22:00:01.999584,15.69997610,.00018868,97.2846,192.6753,81.4725,104.3904,0,U,69300,999,368,-.24140802E-1,-.2527473E-1,0
STARLINK-37630,2026-119F,2026-06-15T22:00:01.999584,15.53227753,.00016331,97.2841,192.5711,86.5769,212.0674,0,U,69301,999,384,-.39191992E-1,-.2178962E-1,0
STARLINK-37804,2026-119G,2026-06-15T22:00:01.999584,15.50936207,.00023165,97.2845,192.5701,94.1068,203.5457,0,U,69302,999,384,-.46210795E-1,-.234265E-1,0
STARLINK-37730,2026-119H,2026-06-15T16:24:48.180672,15.78473756,.00011999,97.2827,192.4530,84.9239,275.2165,0,U,69303,999,380,-.11624567E-1,-.1766438E-1,0
STARLINK-37731,2026-119J,2026-06-15T22:00:01.999584,15.49104705,.00016033,97.2846,192.5676,58.8733,233.7881,0,U,69304,999,384,.17230471E-2,.94475E-3,0
STARLINK-37734,2026-119K,2026-06-15T22:00:01.999584,15.67734941,.00020882,97.2846,192.6787,73.0117,117.1866,0,U,69305,999,384,-.25422525E-1,-.2436854E-1,0
STARLINK-37701,2026-119L,2026-06-15T22:00:01.999584,15.75844700,.00016955,97.2844,192.6969,83.0869,156.9508,0,U,69306,999,384,-.19054032E-1,-.2501544E-1,0
STARLINK-37732,2026-119M,2026-06-15T22:26:24.398304,15.80809248,.00010844,97.2830,192.7239,115.5014,244.6366,0,U,69307,999,384,-.17113136E-3,-.32788E-3,0
STARLINK-37689,2026-119N,2026-06-15T22:00:01.999584,15.50151707,.00014753,97.2845,192.5736,76.7957,234.4320,0,U,69308,999,384,-.27288813E-1,-.137984E-1,0
STARLINK-37619,2026-119P,2026-06-15T20:52:55.296480,15.80072567,.00007956,97.2832,192.6590,81.2584,278.8774,0,U,69309,999,383,-.46330626E-2,-.784587E-2,0
STARLINK-37794,2026-119Q,2026-06-15T22:00:01.999584,15.66209008,.00018337,97.2843,192.6827,90.0273,115.3392,0,U,69310,999,384,-.27533335E-1,-.2474515E-1,0
STARLINK-37795,2026-119R,2026-06-15T22:00:01.999584,15.52224442,.00011691,97.2842,192.5860,86.5866,248.5715,0,U,69311,999,384,-.70056472E-1,-.36499E-1,0
STARLINK-37790,2026-119S,2026-06-15T22:00:01.999584,15.73866749,.0001573,97.2847,192.7079,91.4742,174.1608,0,U,69312,999,384,-.20429995E-1,-.2465759E-1,0
STARLINK-37676,2026-119T,2026-06-15T19:13:37.782336,15.80858095,.00012846,97.2826,192.5997,80.4743,279.6671,0,U,69313,999,382,.44251768E-3,.85621E-3,0
STARLINK-37617,2026-119U,2026-06-15T22:00:01.999584,15.72042007,.00014595,97.2847,192.7122,96.7218,180.7855,0,U,69314,999,384,-.21800984E-1,-.2437367E-1,0
STARLINK-37627,2026-119V,2026-06-14T18:53:32.152416,15.80230891,.00014259,97.2817,191.5290,72.4250,287.7173,0,U,69315,999,366,-.32968523E-2,-.576083E-2,0
STARLINK-37738,2026-119W,2026-06-15T22:00:01.999584,15.72570219,.00015046,97.2845,192.7092,95.3441,173.9409,0,U,69316,999,384,-.21656132E-1,-.2527375E-1,0
