KUIPER-00603            
1 69287U 26118W   26166.95887008  .00018699  00000+0  50868-3 0  9998
2 69287  51.8684  59.1999 0005375 156.0105 204.1133 15.37555931  3793
KUIPER-00605            
1 69288U 26118X   26166.96417208  .00027000  00000+0  74131-3 0  9996
2 69288  51.8676  59.2346 0007310 163.1114 197.0118 15.37026944  3792
KUIPER-00606            
1 69289U 26118Y   26166.95638507  .00017830  00000+0  48277-3 0  9995
2 69289  51.8705  59.1838 0004602 146.0498 214.0784 15.37738873  3797
KUIPER-00607            
1 69290U 26118Z   26166.95993951  .00018313  00000+0  50049-3 0  9991
2 69290  51.8697  59.2079 0005928 157.4979 202.6268 15.37423734  3796
KUIPER-00608            
1 69291U 26118AA  26166.97464923  .00011303  00000+0  33564-3 0  9991
2 69291  51.8613  59.2967 0008480 173.2413 186.8688 15.35238044  3791
KUIPER-00610            
1 69292U 26118AB  26166.95021435  .00013665  00000+0  36525-3 0  9990
2 69292  51.8729  59.1411 0002673 131.3747 228.7470 15.38363952  3791
KUIPER-00613            
1 69293U 26118AC  26166.91398309  .00002761  00000+0  91164-4 0  9990
2 69293  51.8633  59.6413 0009844 178.5133 181.5883 15.34984584  3781
KUIPER-00618            
1 69294U 26118AD  26166.94653023  .00020571  00000+0  53955-3 0  9995
2 69294  51.8732  59.1168 0001718  87.2290 272.8894 15.38626904  3796
KUIPER-00620            
1 69295U 26118AE  26166.94962268  .00015126  00000+0  40416-3 0  9998
2 69295  51.8728  59.1384 0002747 112.6740 247.4538 15.38285101  3791
STARLINK-37501          
1 69296U 26119A   26166.91668981 -.02422220  00000+0 -22149-1 0  9994
2 69296  97.2841 192.6634 0002060  78.9772  78.9066 15.71489075  3684
STARLINK-37496          
1 69297U 26119B   26166.91668981 -.02565902  00000+0 -24576-1 0  9996
2 69297  97.2840 192.6627 0001812  72.2314  85.3752 15.69985579  3680
STARLINK-37519          
1 69298U 26119C   26166.91668981 -.02557496  00000+0 -23423-1 0  9996
2 69298  97.2843 192.6723 0001896  81.1492  97.8087 15.71039178  3686
STARLINK-37455          
1 69299U 26119D   26166.91668981 -.02445277  00000+0 -33574-1 0  9998
2 69299  97.2837 192.6343 0001526  65.5619  16.1033 15.60851723  3686
STARLINK-37456          
1 69300U 26119E   26166.91668981 -.02527473  00000+0 -24141-1 0  9990
2 69300  97.2846 192.6753 0001886  81.4725 104.3904 15.69997610  3680
STARLINK-37630          
1 69301U 26119F   26166.91668981 -.02178962  00000+0 -39192-1 0  9998
2 69301  97.2841 192.5711 0001633  86.5769 212.0674 15.53227753  3849
STARLINK-37804          
1 69302U 26119G   26166.91668981 -.02342650  00000+0 -46211-1 0  9996
2 69302  97.2845 192.5701 0002316  94.1068 203.5457 15.50936207  3841
STARLINK-37730          
1 69303U 26119H   26166.68389098 -.01766438  00000+0 -11625-1 0  9994
2 69303  97.2827 192.4530 0001199  84.9239 275.2165 15.78473756  3809
STARLINK-37731          
1 69304U 26119J   26166.91668981  .00094475  00000+0  17230-2 0  9993
2 69304  97.2846 192.5676 0001603  58.8733 233.7881 15.49104705  3843
STARLINK-37734          
1 69305U 26119K   26166.91668981 -.02436854  00000+0 -25423-1 0  9991
2 69305  97.2846 192.6787 0002088  73.0117 117.1866 15.67734941  3840
STARLINK-37701          
1 69306U 26119L   26166.91668981 -.02501544  00000+0 -19054-1 0  9994
2 69306  97.2844 192.6969 0001695  83.0869 156.9508 15.75844700  3847
STARLINK-37732          
1 69307U 26119M   26166.93500461 -.00032788  00000+0 -17113-3 0  9998
2 69307  97.2830 192.7239 0001084 115.5014 244.6366 15.80809248  3840
STARLINK-37689          
1 69308U 26119N   26166.91668981 -.01379840  00000+0 -27289-1 0  9996
2 69308  97.2845 192.5736 0001475  76.7957 234.4320 15.50151707  3849
STARLINK-37619          
1 69309U 26119P   26166.87008445 -.00784587  00000+0 -46331-2 0  9992
2 69309  97.2832 192.6590 0000795  81.2584 278.8774 15.80072567  3839
STARLINK-37794          
1 69310U 26119Q   26166.91668981 -.02474515  00000+0 -27533-1 0  9997
2 69310  97.2843 192.6827 0001833  90.0273 115.3392 15.66209008  3841
STARLINK-37795          
1 69311U 26119R   26166.91668981 -.03649900  00000+0 -70056-1 0  9999
2 69311  97.2842 192.5860 0001169  86.5866 248.5715 15.52224442  3849
STARLINK-37790          
1 69312U 26119S   26166.91668981 -.02465759  00000+0 -20430-1 0  9998
2 69312  97.2847 192.7079 0001573  91.4742 174.1608 15.73866749  3846
STARLINK-37676          
1 69313U 26119T   26166.80113174  .00085621  00000+0  44252-3 0  9998
2 69313  97.2826 192.5997 0001284  80.4743 279.6671 15.80858095  3821
STARLINK-37617          
1 69314U 26119U   26166.91668981 -.02437367  00000+0 -21801-1 0  9997
2 69314  97.2847 192.7122 0001459  96.7218 180.7855 15.72042007  3845
STARLINK-37627          
1 69315U 26119V   26165.78717769 -.00576083  00000+0 -32969-2 0  9996
2 69315  97.2817 191.5290 0001425  72.4250 287.7173 15.80230891  3666
STARLINK-37738          
1 69316U 26119W   26166.91668981 -.02527375  00000+0 -21656-1 0  9996
2 69316  97.2845 192.7092 0001504  95.3441 173.9409 15.72570219  3845
